{
  "type" : "FeatureCollection",
  "features" : [{"type":"Feature","id":0,"geometry":{"type":"Polygon","coordinates":[[[-71.116847249720479,42.3866765247814],[-71.118180678182171,42.388004531091376],[-71.118194453125639,42.38801818836982],[-71.118069482267259,42.388079262852877],[-71.117441708640229,42.388384803581587],[-71.11745162937892,42.388397544255376],[-71.117929692568964,42.389011488085615],[-71.117988945005024,42.389087580958119],[-71.117074293987386,42.389568234749291],[-71.120284502225843,42.392747467360735],[-71.120924884637802,42.393645095569404],[-71.122890108481414,42.39229787998304],[-71.124203530090057,42.393492574476703],[-71.131298821736621,42.401585757416463],[-71.131300902837268,42.401588534997032],[-71.13379828939685,42.403630236493314],[-71.134508025864704,42.404170180981303],[-71.13503761884381,42.402473417657177],[-71.135052722852066,42.402457378028586],[-71.135193945744334,42.402297486272808],[-71.135310447873294,42.40214822931457],[-71.135491377814731,42.401948400634751],[-71.135620075741571,42.401769382779889],[-71.135801690208311,42.401534715008111],[-71.135927541104962,42.401406823582008],[-71.136043338710564,42.401273858665718],[-71.136161115056581,42.401134687966923],[-71.136269812973183,42.400989906728142],[-71.136476871328099,42.40087127410316],[-71.136750182066677,42.400722330811156],[-71.137003993860048,42.400584308761459],[-71.137091726900323,42.400545173892361],[-71.140446198920458,42.39974198203479],[-71.140465822423693,42.399733699761917],[-71.140643554423548,42.399622260273169],[-71.140782781369623,42.399532126948252],[-71.140942123854401,42.399407575559401],[-71.141086227210678,42.399271362832259],[-71.141212861688146,42.399131134236612],[-71.141323171937984,42.399020653834718],[-71.141471962846978,42.398807211344298],[-71.141619029826288,42.398640577761775],[-71.141660892727558,42.398608300756308],[-71.143580126087855,42.39742101396952],[-71.143587819895274,42.39741790202735],[-71.152057319759237,42.401049073911054],[-71.152245133428977,42.400824212112035],[-71.156385200393601,42.395832093431764],[-71.158387558700824,42.394590436371978],[-71.157104066705415,42.390216738991271],[-71.157103809167651,42.390200651659796],[-71.157108338193623,42.39012693226487],[-71.157131001733276,42.390046064670422],[-71.157305390050141,42.389375875881655],[-71.157449187491125,42.388792202583389],[-71.15773745610106,42.387700840870224],[-71.157745598869482,42.387565102866311],[-71.157795753393373,42.38743075020605],[-71.157892295503558,42.387274568620072],[-71.158001648870282,42.38717460250713],[-71.158058965470616,42.387130479077463],[-71.15810790797272,42.38704041645061],[-71.158230616297004,42.386918522964287],[-71.158382852696462,42.386838219934553],[-71.1585941787705,42.386790051995959],[-71.158827383113149,42.386760854427955],[-71.16034268056481,42.386558291983185],[-71.157789309680282,42.382200814996814],[-71.15776971904603,42.382098850923498],[-71.157634640677742,42.382107181765804],[-71.157300734877893,42.381988790982078],[-71.156961171447847,42.381861469569252],[-71.156556836102254,42.381720989758762],[-71.155912021085427,42.381566735466613],[-71.155623434876404,42.381489348089382],[-71.155201122515166,42.381172624596097],[-71.155324513887578,42.38093630932169],[-71.155044453330262,42.380226365885811],[-71.1550511916723,42.380208693827235],[-71.156231783457429,42.380644902898048],[-71.156223014498877,42.380618757468099],[-71.154290307277506,42.375092634465183],[-71.150378640621071,42.37462184075337],[-71.150239708064333,42.374385724321243],[-71.15019346907826,42.374394964316181],[-71.145768498657617,42.375220057142187],[-71.147280193819441,42.378525559713722],[-71.146926562891849,42.378759789869761],[-71.146180761170172,42.379037285841441],[-71.145718954952628,42.379365236412589],[-71.145294578831823,42.379672316486349],[-71.144927935011395,42.379852736306553],[-71.144531365355022,42.379985809543108],[-71.143788441999007,42.380206127100173],[-71.138783634663028,42.381182649761911],[-71.138301057215145,42.38124719448264],[-71.137818679081903,42.381276764404781],[-71.135828028798855,42.38143227350637],[-71.134945982905649,42.381500219403023],[-71.134424891189866,42.381525092762836],[-71.13408012832231,42.381523996743283],[-71.133018447304394,42.381423898519039],[-71.132608746029447,42.381375128020281],[-71.132393933281662,42.381413465145393],[-71.132239660183444,42.381485015116859],[-71.131601078640614,42.381984271351008],[-71.131025817570261,42.382404461045141],[-71.129333397693259,42.383858030360322],[-71.128862044736238,42.384252266942973],[-71.128591964800435,42.384448635570379],[-71.127814461744407,42.384780311094772],[-71.128317199917632,42.385475253740516],[-71.128478575852469,42.385672028493289],[-71.126919003340817,42.386351912491776],[-71.126052823369406,42.386651815387388],[-71.124209401193923,42.387196199905738],[-71.121874436582928,42.387846070183862],[-71.121360033867788,42.387954948060909],[-71.119359862540804,42.388137238158926],[-71.119144501427982,42.387349485443224],[-71.119158612291699,42.386815723529907],[-71.118638654467475,42.386814001310093],[-71.116847249720479,42.3866765247814]]]},"properties":{"FID":0,"Id":0,"Name":"Northwest Cambridge"}},{"type":"Feature","id":1,"geometry":{"type":"Polygon","coordinates":[[[-71.119157947585762,42.386815721329739],[-71.119145363685121,42.38732866158535],[-71.119144501427982,42.387349485443224],[-71.119145750760282,42.387354055337461],[-71.119353939465626,42.388115572872458],[-71.119359862540804,42.388137238158926],[-71.121360033867788,42.387954948060909],[-71.121874436582658,42.387846070183862],[-71.124209401193923,42.387196199905738],[-71.126052823369406,42.386651815387388],[-71.126919003340817,42.386351912491833],[-71.126922653651903,42.386350321207836],[-71.128476200638161,42.385673063977329],[-71.128478575852469,42.385672028493289],[-71.128418268309517,42.385598492285382],[-71.127819935824903,42.384777975933993],[-71.128591964799895,42.384448635570379],[-71.128651313935109,42.384405484401348],[-71.129309691028439,42.383877858626789],[-71.129333397693259,42.383858030360386],[-71.131010204945909,42.382417870687284],[-71.13229570735983,42.381459021165945],[-71.132393933281662,42.381413465145393],[-71.132608746029447,42.381375128020281],[-71.133018447304394,42.381423898519117],[-71.13408012832231,42.381523996743283],[-71.134424891189866,42.381525092762836],[-71.134569190823882,42.381518205122028],[-71.136783970848498,42.381357599947734],[-71.137818679081903,42.381276764404781],[-71.138301057214605,42.381247194482654],[-71.138783634663028,42.381182649761989],[-71.138872156820526,42.381165379745198],[-71.141552830576146,42.380642363405656],[-71.143788441998822,42.380206127100173],[-71.144531365355022,42.379985809543108],[-71.144927935011395,42.379852736306624],[-71.145294578831823,42.379672316486349],[-71.145718954952358,42.379365236413022],[-71.146180761170172,42.379037285841441],[-71.146926562891849,42.378759789869761],[-71.147264885568063,42.378535699309822],[-71.14725131933946,42.378462425650696],[-71.145768498657617,42.375220057142187],[-71.145731616013094,42.375223558346022],[-71.143849691758604,42.375287566180106],[-71.143631316467975,42.375285711646676],[-71.143918436934811,42.374112660595735],[-71.14004335471175,42.373583899411734],[-71.13999237598766,42.37357734680733],[-71.140074867426677,42.372672549660109],[-71.140113457553312,42.372014562842075],[-71.140192996710482,42.371564039439214],[-71.140279485291913,42.371108225994242],[-71.140372921594562,42.370647392570888],[-71.14045136392491,42.370367829427536],[-71.140600089869793,42.370026276184248],[-71.140604729834209,42.370018904874016],[-71.142616469391101,42.36686643765659],[-71.142763624134588,42.366799553471097],[-71.142945771602712,42.366727556075226],[-71.143267617764437,42.366640416812118],[-71.14359641602843,42.366568963150158],[-71.144270432610014,42.366463375589341],[-71.14425485016973,42.366428567522561],[-71.14377475305659,42.365443585381229],[-71.143614832450069,42.365131108045389],[-71.141206942899217,42.36466939710995],[-71.140219887650105,42.364519789625859],[-71.138932624638059,42.36504324288039],[-71.136569902963473,42.367043182546134],[-71.13431285868181,42.367827259251271],[-71.132322427541951,42.369103457859971],[-71.131832194367846,42.369784428741077],[-71.132260145572857,42.370854679185904],[-71.132829516059459,42.37150040238209],[-71.133223347785361,42.372349551912869],[-71.133197723897425,42.372934650299221],[-71.132728253379994,42.373386460836748],[-71.131636028336203,42.373885728768919],[-71.13026787529023,42.374046178985743],[-71.128901649697525,42.373876940274009],[-71.127848309502454,42.373428470852488],[-71.126841390141493,42.37265046326872],[-71.125947205379759,42.371609070002222],[-71.124483698928202,42.369503452348305],[-71.123563837895745,42.369032318619254],[-71.122561661114418,42.368794970943213],[-71.121055983030914,42.368844035119579],[-71.118944894842755,42.368627003818006],[-71.118355135479831,42.368451001231698],[-71.118250357784831,42.368378633954492],[-71.117808941816392,42.36876717675176],[-71.117363110800568,42.36921591434681],[-71.117258187706256,42.369167552220283],[-71.116751563538372,42.369964082262634],[-71.115827671662231,42.371497417525838],[-71.115624564551453,42.371622773221382],[-71.115582928973595,42.371814686196657],[-71.11567101135293,42.371971022851938],[-71.115670136099922,42.37211505899721],[-71.115583378477737,42.372225796508936],[-71.115388635064178,42.372392467461211],[-71.115147029633974,42.372339660643512],[-71.114714815125367,42.373855455882421],[-71.114330291812934,42.375483488445134],[-71.114116675830942,42.376634192822323],[-71.11266348650048,42.376940526094721],[-71.112865547497961,42.377524163657661],[-71.113406942862468,42.377407863777663],[-71.113625103537331,42.377967679244279],[-71.113675726567493,42.378327052895308],[-71.113142309460983,42.378425881537545],[-71.113192896084072,42.378586486392614],[-71.11271072828518,42.378762299370699],[-71.112769749343286,42.379040585886138],[-71.112614894703455,42.379066131847779],[-71.11218036596172,42.379154340487069],[-71.112298691709668,42.379582002998596],[-71.112634758007189,42.380469311442866],[-71.11272669821156,42.380559293571231],[-71.112958670558612,42.381018986893757],[-71.114022838790163,42.380352655007769],[-71.114129557078996,42.380353012993332],[-71.114214642106148,42.380400772067134],[-71.114496780661781,42.380802607042135],[-71.114689099928938,42.380766327301046],[-71.114987913107527,42.380767327680552],[-71.116332250506304,42.380824896964178],[-71.1164829139191,42.379811637519531],[-71.118961175032638,42.379935259874863],[-71.119919124568781,42.379970076522639],[-71.119157947585762,42.386815721329739]]]},"properties":{"FID":1,"Id":0,"Name":"Old Cambridge"}},{"type":"Feature","id":2,"geometry":{"type":"Polygon","coordinates":[[[-71.119872087169,42.379968367136897],[-71.117447070941907,42.379859738677531],[-71.1164829139191,42.379811637519531],[-71.116482858190665,42.379812012313735],[-71.116333710873434,42.380815075675422],[-71.116332250506304,42.380824896964178],[-71.114987913107527,42.380767327680552],[-71.114689099928938,42.380766327301046],[-71.114660892019117,42.380771648557037],[-71.114496780661597,42.380802607042135],[-71.114494910607576,42.380799943641122],[-71.11422127221897,42.380410215052258],[-71.114214642106148,42.380400772067134],[-71.114129557078996,42.380353012993332],[-71.114022838790163,42.380352655007769],[-71.114003037574477,42.380365053812561],[-71.112989790478593,42.38099950140996],[-71.112958670558612,42.381018986893757],[-71.112818427480818,42.380741071843353],[-71.11272669821156,42.380559293571231],[-71.112644639000735,42.380478982015468],[-71.112634758007189,42.380469311443008],[-71.112298691709668,42.379582002998596],[-71.11218036596172,42.379154340487069],[-71.112196499774498,42.379151065382686],[-71.112775054211369,42.37905314734973],[-71.112707833376547,42.378763474838472],[-71.113175300916936,42.378573659719365],[-71.113152891836592,42.378439104668971],[-71.113674409554434,42.37831770345155],[-71.11360806448981,42.377923956238675],[-71.113408184351272,42.377394214283285],[-71.112865310764633,42.377523479877823],[-71.112664789772452,42.376940251373213],[-71.114116675830942,42.376634192822323],[-71.114117958453079,42.376627283732056],[-71.114703991943145,42.37390128130631],[-71.11514886441033,42.372332015524798],[-71.11538409071845,42.372391321728088],[-71.11559089735006,42.372223684639778],[-71.112730557314592,42.369908694247925],[-71.111566252160586,42.369459701082476],[-71.110701192481244,42.369151823018697],[-71.110069036856203,42.368927148068103],[-71.109414758635737,42.368685910517073],[-71.108771905669656,42.368395256126114],[-71.107641970769606,42.367789741925577],[-71.106612238807102,42.367159833231241],[-71.105394462525894,42.366389156243244],[-71.103977027053133,42.365560084862587],[-71.103150613093717,42.366331082872264],[-71.101015009128474,42.369362125859247],[-71.099016285885298,42.372172262584556],[-71.101609647712024,42.374375127513673],[-71.103137191809452,42.374337340837876],[-71.103141782927409,42.374337227237142],[-71.107375062888408,42.378165179346539],[-71.108439831772472,42.379104316292931],[-71.10787218404424,42.379397002701623],[-71.110699937276991,42.381695957835305],[-71.111636802715864,42.381772001254838],[-71.111691787707528,42.381776464029493],[-71.115489136894155,42.385045900892933],[-71.116843732483829,42.386672301926815],[-71.118632275825249,42.386813511849091],[-71.119156758867135,42.386815717395102],[-71.119872087169,42.379968367136897]]]},"properties":{"FID":2,"Id":0,"Name":"Mid Cambridge"}},{"type":"Feature","id":3,"geometry":{"type":"Polygon","coordinates":[[[-71.087485919425248,42.373404048279134],[-71.087655234253432,42.372703591951193],[-71.087847905829307,42.371935282669781],[-71.088070345693666,42.371145108127045],[-71.088180657522329,42.370889169781414],[-71.08925825229862,42.367072109690575],[-71.089584736862236,42.365509811905348],[-71.090029260747443,42.363588894647613],[-71.090790679339833,42.362767676295569],[-71.088199452508817,42.362598219149405],[-71.085053281709776,42.362346598442187],[-71.084621915991093,42.36224205005567],[-71.084143810268984,42.362205991919211],[-71.083834607267832,42.362296421331095],[-71.082987689162493,42.362030153715374],[-71.08081312209373,42.361862039914072],[-71.078746652137085,42.361682837443233],[-71.075631347403871,42.361442515179775],[-71.074969146799731,42.363545670731291],[-71.074299865744422,42.36440145646953],[-71.071473440789632,42.367057290717391],[-71.069407417263776,42.36905326355447],[-71.063683090791713,42.368916176736931],[-71.067125895755197,42.371826006728412],[-71.072467918218649,42.372670836764115],[-71.07273212940504,42.373223993010129],[-71.073937099879089,42.372578221601977],[-71.074155413191065,42.372536215689138],[-71.07498386631346,42.37283782122276],[-71.075228490649394,42.373369316952939],[-71.075968752064185,42.374037504502084],[-71.076196780283865,42.373997650433161],[-71.076634751594597,42.373732020130035],[-71.077890851826538,42.373595549331],[-71.078818871677669,42.374145632392576],[-71.079274223819084,42.374166665344269],[-71.079652203813836,42.373890695127777],[-71.079975406440965,42.373824950795182],[-71.080265438924513,42.374072340018238],[-71.080872816180005,42.374045548605984],[-71.081133642306739,42.374060863643138],[-71.081658852351183,42.373972304545624],[-71.081853494710231,42.373800973487363],[-71.082018631729056,42.373556040968055],[-71.082544373135519,42.373399261978498],[-71.083467043545795,42.373379530325565],[-71.084293749670366,42.373318270499432],[-71.084862347717362,42.373413320158356],[-71.085310440343505,42.373962134159378],[-71.085412585783075,42.374032868252144],[-71.086078730586834,42.373061373956759],[-71.087485919425248,42.373404048279134]]]},"properties":{"FID":3,"Id":0,"Name":"East Cambridge"}},{"type":"Feature","id":4,"geometry":{"type":"Polygon","coordinates":[[[-71.11821402559795,42.368410614487907],[-71.117480852246473,42.367786580593098],[-71.11710232298492,42.366869845659039],[-71.116643540727836,42.361090645490215],[-71.11662375406496,42.359829255775942],[-71.117162410233803,42.35694221055109],[-71.117111492399587,42.356291034685704],[-71.116841887852615,42.355517066573086],[-71.114275160984164,42.353616497805199],[-71.112359599046073,42.352898017764353],[-71.109756652166823,42.352461990581041],[-71.106411319302168,42.352328525471407],[-71.093430286390273,42.353544690643574],[-71.092551167314852,42.353765363062443],[-71.077158588111317,42.358673730241755],[-71.076607680818555,42.359017551148106],[-71.076219984303876,42.359565410741645],[-71.075654802241104,42.361444324865801],[-71.083211902265219,42.36210064623193],[-71.083834607267818,42.362296421331394],[-71.083917535362659,42.362272168313879],[-71.084173055207984,42.362208197594299],[-71.084621915990923,42.362242050055727],[-71.085011280977398,42.362336418978977],[-71.090767223057014,42.362792975167338],[-71.090077289874174,42.363537094226444],[-71.088884695645177,42.368395377097769],[-71.088180657522329,42.370889169781414],[-71.088163328588934,42.370929375392201],[-71.088039213561487,42.37125570021913],[-71.087847905828681,42.371935282669824],[-71.087655234252637,42.372703591951179],[-71.087485919424822,42.373404048279255],[-71.087600665038224,42.373431649650961],[-71.089706552129044,42.373938183576833],[-71.089783627227689,42.373956721743383],[-71.09363355101641,42.374256677081796],[-71.097346599708601,42.374434406523157],[-71.101590929855377,42.3743592288725],[-71.099021197808042,42.372176435093031],[-71.102214718952681,42.367659429679733],[-71.103150613093717,42.366331082872264],[-71.10315169016647,42.366330078039397],[-71.103964726544547,42.36557156073151],[-71.103977027053133,42.365560084862587],[-71.105394462525894,42.366389156243244],[-71.106612238807102,42.367159833231241],[-71.107641970769606,42.367789741925577],[-71.108762426764031,42.368390176625567],[-71.110255801855331,42.368993526899224],[-71.110701192481244,42.369151823018697],[-71.111566252160586,42.369459701082476],[-71.112730557314592,42.369908694247925],[-71.115586311642616,42.372222052621566],[-71.115623828203525,42.372170682489809],[-71.115670156587086,42.372111687530641],[-71.11567101135293,42.371971022851938],[-71.115582928973595,42.371814686196657],[-71.115599030681054,42.371740467923217],[-71.115622341294113,42.371633021024898],[-71.115624564551453,42.371622773221382],[-71.11580218974261,42.371513144761046],[-71.116751563538372,42.369964082262634],[-71.117258187706256,42.369167552220283],[-71.117259465604761,42.369168141242362],[-71.117364754868362,42.369214259575344],[-71.117808941816392,42.36876717675176],[-71.11821402559795,42.368410614487907]]]},"properties":{"FID":4,"Id":0,"Name":"Cambridgeport"}}]
}